{
  "type": "FeatureCollection",
  "features": [
    {
      "type": "Feature",
      "properties": {
        "norad_id": 37427,
        "name": "FENGYUN 1C DEB",
        "group": "fengyun-1c-debris",
        "lat": -17.45463428531915,
        "lon": 121.86270190903159,
        "alt_km": 452.3498780491227,
        "timestamp": "2025-12-04T03:47:54.832143+00:00",
        "meta_object_name": "FENGYUN 1C DEB",
        "meta_object_id": "1999-025EGV",
        "meta_epoch": "2025-11-25T03:26:10.747680",
        "meta_mean_motion": 14.97768919,
        "meta_eccentricity": 0.01887185,
        "meta_inclination": 98.6232,
        "meta_ra_of_asc_node": 109.1733,
        "meta_arg_of_pericenter": 355.7363,
        "meta_mean_anomaly": 4.2239,
        "meta_ephemeris_type": 0,
        "meta_classification_type": "U",
        "meta_norad_cat_id": 37427,
        "meta_element_set_no": 999,
        "meta_rev_at_epoch": 60059,
        "meta_bstar": 0.00046451943,
        "meta_mean_motion_dot": 7.8e-05,
        "meta_mean_motion_ddot": 0,
        "tle_line1": "1 37427U 99025EGV 25329.14317995  .00007800  00000+0  46452-3 0  9996",
        "tle_line2": "2 37427  98.6232 109.1733 0188718 355.7363   4.2239 14.97768919600595"
      },
      "geometry": {
        "type": "Point",
        "coordinates": [
          121.86270190903159,
          -17.45463428531915
        ]
      }
    },
    {
      "type": "Feature",
      "properties": {
        "norad_id": 37428,
        "name": "FENGYUN 1C DEB",
        "group": "fengyun-1c-debris",
        "lat": -33.54984006080885,
        "lon": -153.12872256049707,
        "alt_km": 820.2758433336321,
        "timestamp": "2025-12-04T03:47:54.832153+00:00",
        "meta_object_name": "FENGYUN 1C DEB",
        "meta_object_id": "1999-025EGW",
        "meta_epoch": "2025-11-04T08:59:22.602624",
        "meta_mean_motion": 14.34038787,
        "meta_eccentricity": 0.00551491,
        "meta_inclination": 97.7239,
        "meta_ra_of_asc_node": 175.0839,
        "meta_arg_of_pericenter": 216.1318,
        "meta_mean_anomaly": 143.6138,
        "meta_ephemeris_type": 0,
        "meta_classification_type": "U",
        "meta_norad_cat_id": 37428,
        "meta_element_set_no": 999,
        "meta_rev_at_epoch": 62886,
        "meta_bstar": 0.0019041151,
        "meta_mean_motion_dot": 5.377e-05,
        "meta_mean_motion_ddot": 0,
        "tle_line1": "1 37428U 99025EGW 25308.37456716  .00005377  00000+0  19041-2 0  9994",
        "tle_line2": "2 37428  97.7239 175.0839 0055149 216.1318 143.6138 14.34038787628863"
      },
      "geometry": {
        "type": "Point",
        "coordinates": [
          -153.12872256049707,
          -33.54984006080885
        ]
      }
    },
    {
      "type": "Feature",
      "properties": {
        "norad_id": 37430,
        "name": "FENGYUN 1C DEB",
        "group": "fengyun-1c-debris",
        "lat": -42.083436016738645,
        "lon": -135.7894514236508,
        "alt_km": 810.2105115249014,
        "timestamp": "2025-12-04T03:47:54.832163+00:00",
        "meta_object_name": "FENGYUN 1C DEB",
        "meta_object_id": "1999-025EGY",
        "meta_epoch": "2025-12-02T22:11:25.130688",
        "meta_mean_motion": 14.28805827,
        "meta_eccentricity": 0.00188558,
        "meta_inclination": 98.7667,
        "meta_ra_of_asc_node": 50.9812,
        "meta_arg_of_pericenter": 100.007,
        "meta_mean_anomaly": 260.324,
        "meta_ephemeris_type": 0,
        "meta_classification_type": "U",
        "meta_norad_cat_id": 37430,
        "meta_element_set_no": 999,
        "meta_rev_at_epoch": 61561,
        "meta_bstar": 0.0024289087,
        "meta_mean_motion_dot": 6.093e-05,
        "meta_mean_motion_ddot": 0,
        "tle_line1": "1 37430U 99025EGY 25336.92459642  .00006093  00000+0  24289-2 0  9996",
        "tle_line2": "2 37430  98.7667  50.9812 0018855 100.0070 260.3240 14.28805827615613"
      },
      "geometry": {
        "type": "Point",
        "coordinates": [
          -135.7894514236508,
          -42.083436016738645
        ]
      }
    },
    {
      "type": "Feature",
      "properties": {
        "norad_id": 37432,
        "name": "FENGYUN 1C DEB",
        "group": "fengyun-1c-debris",
        "lat": -77.53617610874583,
        "lon": 130.9956921335248,
        "alt_km": 644.6654730094697,
        "timestamp": "2025-12-04T03:47:54.832173+00:00",
        "meta_object_name": "FENGYUN 1C DEB",
        "meta_object_id": "1999-025EHA",
        "meta_epoch": "2025-12-02T07:37:37.120800",
        "meta_mean_motion": 14.5327938,
        "meta_eccentricity": 0.01827667,
        "meta_inclination": 98.1849,
        "meta_ra_of_asc_node": 349.8265,
        "meta_arg_of_pericenter": 320.333,
        "meta_mean_anomaly": 38.4615,
        "meta_ephemeris_type": 0,
        "meta_classification_type": "U",
        "meta_norad_cat_id": 37432,
        "meta_element_set_no": 999,
        "meta_rev_at_epoch": 8225,
        "meta_bstar": 0.0011757415,
        "meta_mean_motion_dot": 6.037e-05,
        "meta_mean_motion_ddot": 0,
        "tle_line1": "1 37432U 99025EHA 25336.31779075  .00006037  00000+0  11757-2 0  9990",
        "tle_line2": "2 37432  98.1849 349.8265 0182766 320.3330  38.4615 14.53279380 82257"
      },
      "geometry": {
        "type": "Point",
        "coordinates": [
          130.9956921335248,
          -77.53617610874583
        ]
      }
    },
    {
      "type": "Feature",
      "properties": {
        "norad_id": 37435,
        "name": "FENGYUN 1C DEB",
        "group": "fengyun-1c-debris",
        "lat": 53.20721617876093,
        "lon": 2.887783365470012,
        "alt_km": 784.0249457897498,
        "timestamp": "2025-12-04T03:47:54.832183+00:00",
        "meta_object_name": "FENGYUN 1C DEB",
        "meta_object_id": "1999-025EHD",
        "meta_epoch": "2025-11-29T08:44:14.359776",
        "meta_mean_motion": 14.22271668,
        "meta_eccentricity": 0.00410088,
        "meta_inclination": 98.6499,
        "meta_ra_of_asc_node": 9.9283,
        "meta_arg_of_pericenter": 53.3524,
        "meta_mean_anomaly": 307.1414,
        "meta_ephemeris_type": 0,
        "meta_classification_type": "U",
        "meta_norad_cat_id": 37435,
        "meta_element_set_no": 999,
        "meta_rev_at_epoch": 88749,
        "meta_bstar": 0.00099361212,
        "meta_mean_motion_dot": 2.183e-05,
        "meta_mean_motion_ddot": 0,
        "tle_line1": "1 37435U 99025EHD 25333.36405509  .00002183  00000+0  99361-3 0  9999",
        "tle_line2": "2 37435  98.6499   9.9283 0041008  53.3524 307.1414 14.22271668887490"
      },
      "geometry": {
        "type": "Point",
        "coordinates": [
          2.887783365470012,
          53.20721617876093
        ]
      }
    },
    {
      "type": "Feature",
      "properties": {
        "norad_id": 37436,
        "name": "FENGYUN 1C DEB",
        "group": "fengyun-1c-debris",
        "lat": -79.98252926312168,
        "lon": 95.75740521150361,
        "alt_km": 888.5466793542,
        "timestamp": "2025-12-04T03:47:54.832194+00:00",
        "meta_object_name": "FENGYUN 1C DEB",
        "meta_object_id": "1999-025EHE",
        "meta_epoch": "2025-12-03T09:25:30.640800",
        "meta_mean_motion": 14.06318137,
        "meta_eccentricity": 0.0059426,
        "meta_inclination": 98.9386,
        "meta_ra_of_asc_node": 32.0042,
        "meta_arg_of_pericenter": 173.9702,
        "meta_mean_anomaly": 186.2194,
        "meta_ephemeris_type": 0,
        "meta_classification_type": "U",
        "meta_norad_cat_id": 37436,
        "meta_element_set_no": 999,
        "meta_rev_at_epoch": 63867,
        "meta_bstar": 0.00077158,
        "meta_mean_motion_dot": 1.249e-05,
        "meta_mean_motion_ddot": 0,
        "tle_line1": "1 37436U 99025EHE 25337.39271575  .00001249  00000+0  77158-3 0  9993",
        "tle_line2": "2 37436  98.9386  32.0042 0059426 173.9702 186.2194 14.06318137638679"
      },
      "geometry": {
        "type": "Point",
        "coordinates": [
          95.75740521150361,
          -79.98252926312168
        ]
      }
    },
    {
      "type": "Feature",
      "properties": {
        "norad_id": 37437,
        "name": "FENGYUN 1C DEB",
        "group": "fengyun-1c-debris",
        "lat": 11.582741497694458,
        "lon": 152.0822864623256,
        "alt_km": 837.1341784876631,
        "timestamp": "2025-12-04T03:47:54.832204+00:00",
        "meta_object_name": "FENGYUN 1C DEB",
        "meta_object_id": "1999-025EHF",
        "meta_epoch": "2025-11-30T18:36:25.322976",
        "meta_mean_motion": 14.18810149,
        "meta_eccentricity": 0.0113368,
        "meta_inclination": 98.5859,
        "meta_ra_of_asc_node": 327.0314,
        "meta_arg_of_pericenter": 82.7284,
        "meta_mean_anomaly": 94.5607,
        "meta_ephemeris_type": 0,
        "meta_classification_type": "U",
        "meta_norad_cat_id": 37437,
        "meta_element_set_no": 999,
        "meta_rev_at_epoch": 63821,
        "meta_bstar": 0.0004989187,
        "meta_mean_motion_dot": 1.064e-05,
        "meta_mean_motion_ddot": 0,
        "tle_line1": "1 37437U 99025EHF 25334.77529309  .00001064  00000+0  49892-3 0  9993",
        "tle_line2": "2 37437  98.5859 327.0314 0113368  82.7284  94.5607 14.18810149638211"
      },
      "geometry": {
        "type": "Point",
        "coordinates": [
          152.0822864623256,
          11.582741497694458
        ]
      }
    }
  ]
}